S-NET A                 
1 43188U 18014J   25134.28701748  .00005503  00000+0  32788-3 0  9993
2 43188  97.5661  37.5811 0008526 320.0502  40.0100 15.11571356398402
S-NET C                 
1 43189U 18014K   25134.29393169  .00004820  00000+0  28786-3 0  9993
2 43189  97.5678  37.5979 0009813 310.5746  49.4629 15.11543583396958
PAZ                     
1 43215U 18020A   25134.80158569  .00002206  00000+0  10819-3 0  9994
2 43215  97.4457 142.8947 0001629  91.3861 268.7560 15.19159083400532
GOES 17                 
1 43226U 18022A   25134.44905770 -.00000076  00000+0  00000+0 0  9993
2 43226   0.0189 260.0827 0002985 196.0626 193.5475  1.00272176 26420
LKW-4                   
1 43236U 18025A   25134.37612525  .00015298  00000+0  41284-3 0  9996
2 43236  97.5968 278.9255 0002633 310.1863  49.9151 15.37875989398335
ZHUHAI-1 OVS-02         
1 43440U 18040B   25134.87235030  .00006587  00000+0  31843-3 0  9998
2 43440  97.0743 171.5676 0003346 196.9864 163.1260 15.18916919392136
ZHUHAI-1 OHS-02         
1 43441U 18040C   25134.84616252  .00010591  00000+0  41440-3 0  9999
2 43441  97.0805 175.7736 0012198 209.5876 150.4675 15.25927904392142
GAOFEN-6                
1 43484U 18048A   25134.81605072  .00000832  00000+0  12602-3 0  9994
2 43484  97.8238 205.8497 0013216  26.2095 333.9782 14.76632658374607
LUOJIA-1 01             
1 43485U 18048B   25134.86793823  .00002120  00000+0  25416-3 0  9991
2 43485  97.8426 214.2678 0008995 358.5764   1.5424 14.85095973375036
PAKTES 1A               
1 43529U 18056A   25134.84715223  .00002717  00000+0  24344-3 0  9996
2 43529  98.0740 271.5296 0021859 356.5256   3.5809 14.96528055372295
PRSS 1                  
1 43530U 18056B   25134.84159649  .00000994  00000+0  13479-3 0  9994
2 43530  97.8260 207.8727 0001333 103.8387 256.2974 14.81031544369455
HAIYANG-1C              
1 43609U 18068A   25134.80055870  .00000162  00000+0  73605-4 0  9996
2 43609  98.5625 206.8501 0010158 189.5981 170.5011 14.34158147349983
SSTL S1-4               
1 43618U 18071A   25134.83034949  .00001256  00000+0  11702-3 0  9991
2 43618  97.5590  16.5664 0003510  67.6655 292.4939 14.95956768363371
HAIYANG-2B              
1 43655U 18081A   25134.85269985  .00000005  00000+0  48159-4 0  9993
2 43655  99.3335 144.5288 0000305 204.7315 155.3822 13.79307720330011
CZ-4B R/B               
1 43656U 18081B   25134.56930959  .00000170  00000+0  68451-4 0  9998
2 43656  99.3999  15.3209 0204969 334.7493  24.3776 14.31637816342263
CFOSAT                  
1 43662U 18083A   25134.86073181  .00004121  00000+0  21404-3 0  9991
2 43662  97.3630 146.0702 0002049 103.2155 256.9307 15.16636478362160
TEN-KOH                 
1 43677U 18084G   25134.52205130  .00002149  00000+0  17593-3 0  9994
2 43677  98.0890 305.7443 0006278  12.0823 348.0549 15.00455524356332
DIWATA-2B               
1 43678U 18084H   25134.80984474  .00002175  00000+0  18854-3 0  9991
2 43678  98.1011 309.9551 0008195  17.3282 342.8217 14.98211643356525
STARS-AO                
1 43679U 18084J   25134.46164657  .00007119  00000+0  43149-3 0  9995
2 43679  98.0746 319.9926 0003682  89.9380 270.2270 15.10903270357148
AUTCUBE 2               
1 43681U 18084K   25134.46332333  .00004175  00000+0  29052-3 0  9992
2 43681  98.0831 315.2180 0008766 312.8625  47.1863 15.06050055356838
METOP-C                 
1 43689U 18087A   25134.81176903  .00000135  00000+0  81895-4 0  9997
2 43689  98.7169 195.4661 0000698 165.7634 194.3563 14.21477121338239
ES'HAIL 2               
1 43700U 18090A   25134.75392082  .00000161  00000+0  00000+0 0  9999
2 43700   0.0128 275.3630 0002446 176.8904  77.7326  1.00275573 23922
TIANPING 1B             
1 43714U 18094E   25134.85803116  .00046097  00000+0  42271-3 0  9992
2 43714  97.3257 166.9469 0007684 129.9921 230.2016 15.67594623362174
MOHAMMED VI-B           
1 43717U 18095A   25134.85423637  .00000894  12570-9  12664-3 0  9995
2 43717  97.9540 207.8933 0001200  96.0137 264.1209 14.77114005332584
HYSIS                   
1 43719U 18096A   25134.83269899  .00001367  29610-9  18681-3 0  9998
2 43719  98.0319 198.4911 0001043  85.8103 274.3227 14.78662854348690
COSMOS 2530             
1 43751U 18097A   25134.83129315  .00000003  00000+0 -50078-4 0  9999
2 43751  82.5113 109.5590 0019269 180.4836 179.6229 12.42865568292891
COSMOS 2531             
1 43752U 18097B   25134.85785886  .00000006  00000+0 -28848-4 0  9996
2 43752  82.5157 110.4579 0015756 198.9057 161.1439 12.42858640292908
COSMOS 2532             
1 43753U 18097C   25134.88466308  .00000019  00000+0  68617-4 0  9996
2 43753  82.5103 109.4068 0017247 201.1955 158.8412 12.42857856292904
MINXSS-2                
1 43758U 18099A   25134.41693208  .00015604  00000+0  62846-3 0  9996
2 43758  97.5027 200.3821 0010908 241.4806 118.5334 15.24896319352988
SIRION PATHFINDER-2     
1 43759U 18099B   25134.40184984  .00004911  00000+0  30898-3 0  9993
2 43759  97.4790 187.9581 0008490 227.0967 132.9550 15.09631282352360
AISTECHSAT 2            
1 43768U 18099L   25134.81975491  .00005987  00000+0  37099-3 0  9993
2 43768  97.4841 186.6971 0004278 218.7758 141.3165 15.10123038352050
FOX-1CLIFF (AO-95)      
1 43770U 18099N   25134.59388087  .00008171  00000+0  41916-3 0  9991
2 43770  97.4925 192.9734 0009143 305.7451  54.2931 15.16763689352619
2018-099Q               
1 43772U 18099Q   25134.44103701  .00022886  00000+0  79776-3 0  9999
2 43772  97.4728 199.2884 0004667 174.8087 185.3202 15.29639605353009
RANGE-A                 
1 43773U 18099R   25134.67248822  .00004616  00000+0  29679-3 0  9997
2 43773  97.4501 183.8267 0009635 281.6469  78.3679 15.08851756352316
HIBER-2                 
1 43774U 18099S   25134.67249646  .00030750  00000+0  86203-3 0  9997
2 43774  97.4901 203.2587 0006125 209.1074 150.9829 15.36526005353201
MOVE-II                 
1 43780U 18099Y   25134.85917882  .00177050  00000+0  16903-2 0  9992
2 43780  97.4666 208.7194 0006329 210.7540 149.3350 15.66166102353765
VESTA-1                 
1 43781U 18099Z   25134.41747289  .00037938  00000+0  10663-2 0  9994
2 43781  97.4640 196.6632 0003275 216.1889 143.9134 15.36412719353049
SNUSAT-2                
1 43782U 18099AA  25134.11072872  .00007863  00000+0  43349-3 0  9993
2 43782  97.4611 189.4608 0010924 240.1464 119.8683 15.14205999352491
SNUGLITE                
1 43784U 18099AC  25134.43188019  .00010073  00000+0  51163-3 0  9991
2 43784  97.4424 189.2851 0002502 222.4376 137.6664 15.17079360352672
ITASAT                  
1 43786U 18099AE  25134.41810941  .00006687  00000+0  38585-3 0  9996
2 43786  97.4582 189.3478 0012729 299.1790  60.8167 15.12605250352503
KAZSCISAT-1             
1 43787U 18099AF  25133.73224969  .00148033  00000+0  15922-2 0  9991
2 43787  97.4478 203.0378 0006301 207.3595 152.7333 15.63232654353523
EAGLET-I                
1 43790U 18099AJ  25134.68816573  .00004187  00000+0  26972-3 0  9997
2 43790  97.4780 189.6516 0010423 278.7781  81.2267 15.08834271352168
ESEO                    
1 43792U 18099AL  25134.09677237  .00001732  00000+0  13466-3 0  9993
2 43792  97.4463 182.6910 0011450 254.3936 105.6026 15.02497228351841
CSIM-FD                 
1 43793U 18099AM  25134.25805154  .00150405  00000+0  14778-2 0  9991
2 43793  97.4839 210.3120 0007963 208.7133 151.3689 15.65512827353518
THEA                    
1 43796U 18099AQ  25134.09446109  .00011564  00000+0  52481-3 0  9993
2 43796  97.4950 198.1581 0008678 246.4123 113.6201 15.20930752351770
ASTROCAST 0.1           
1 43798U 18099AS  25134.46272345  .00016497  00000+0  60846-3 0  9999
2 43798  97.4851 201.8586 0007978 194.7882 165.3125 15.27836503353180
JY1SAT (JO-97)          
1 43803U 18099AX  25134.65590283  .00010906  00000+0  50551-3 0  9992
2 43803  97.4672 193.9730 0006739 224.0937 135.9762 15.20232089352835
SUOMI-100               
1 43804U 18099AY  25134.43158572  .00010292  00000+0  51019-3 0  9998
2 43804  97.4743 193.1197 0011390 232.8709 127.1485 15.17875918352731
AL-FARABI 2             
1 43805U 18099AZ  25134.11263912  .00024972  00000+0  80600-3 0  9997
2 43805  97.4563 198.0475 0007271 199.8707 160.2252 15.32097386353124
CENTAURI-1              
1 43809U 18099BD  25134.71125011  .00005294  00000+0  31992-3 0  9990
2 43809  97.4765 190.1045 0014333 264.6818  95.2776 15.11012605352225
GLOBAL-2                
1 43812U 18099BG  25134.57891213  .00002903  00000+0  20567-3 0  9992
2 43812  97.4065 182.2307 0008300  85.7983 274.4193 15.05531623351870
BRIO                    
1 43813U 18099BH  25134.75111016  .00162535  00000+0  14733-2 0  9994
2 43813  97.5144 216.1432 0004346 202.4573 157.6498 15.67515485353491
SEAHAWK-1               
1 43820U 18099BQ  25134.10395170  .00008042  00000+0  43677-3 0  9998
2 43820  97.4511 188.6428 0008373 256.4589 103.5710 15.14752059351963
SAUDISAT 5A             
1 43831U 18102A   25134.84558228  .00005839  00000+0  25215-3 0  9990
2 43831  97.3590 199.2253 0012626 100.3086 259.9575 15.22808843354959
SAUDISAT 5B             
1 43833U 18102C   25134.82725582  .00005180  00000+0  22102-3 0  9990
2 43833  97.3670 201.5768 0013310 102.8573 257.4151 15.23264112355058
2018-102D               
1 43834U 18102D   25134.82653814  .00016442  00000+0  44116-3 0  9991
2 43834  97.3809 210.8858 0009391  85.1659 275.0658 15.37991231355577
ISAT                    
1 43879U 18111D   25134.71675222  .00018438  00000+0  65775-3 0  9996
2 43879  97.5977  48.5571 0006531 296.5853  63.4717 15.28922203347725
UWE-4                   
1 43880U 18111E   25134.49985501  .00014318  00000+0  57289-3 0  9991
2 43880  97.5922  46.9915 0010284 309.1665  50.8658 15.25145799349655
D-STAR ONE (SPARROW)    
1 43881U 18111F   25134.52278768  .00019892  00000+0  68471-3 0  9993
2 43881  97.6118  51.1378 0006068 351.7449   8.3690 15.30074500349801
